ADRAS-J                 
1 58992U 24034A   24172.72771642  .00003590  00000+0  33819-3 0  9991
2 58992  98.2113 145.9072 0046046  39.8174 320.6409 14.93723696 18394
